[{"OBJECT_NAME":"STARLINK-3896","OBJECT_ID":"2022-049F","EPOCH":"2026-03-09T05:37:40.826784","MEAN_MOTION":15.08830227,"ECCENTRICITY":0.00013403,"INCLINATION":53.2162,"RA_OF_ASC_NODE":71.1643,"ARG_OF_PERICENTER":88.6159,"MEAN_ANOMALY":271.4987,"EPHEMERIS_TYPE":0,"CLASSIFICATION_TYPE":"U","NORAD_CAT_ID":52456,"ELEMENT_SET_NO":999,"REV_AT_EPOCH":21204,"BSTAR":-0.00016661055,"MEAN_MOTION_DOT":-2.938e-5,"MEAN_MOTION_DDOT":0},{"OBJECT_NAME":"CZ-4B DEB","OBJECT_ID":"2006-015E","EPOCH":"2026-03-09T20:34:53.082912","MEAN_MOTION":15.19885806,"ECCENTRICITY":0.00461993,"INCLINATION":98.0565,"RA_OF_ASC_NODE":201.7753,"ARG_OF_PERICENTER":62.4887,"MEAN_ANOMALY":298.1031,"EPHEMERIS_TYPE":0,"CLASSIFICATION_TYPE":"U","NORAD_CAT_ID":29538,"ELEMENT_SET_NO":999,"REV_AT_EPOCH":5389,"BSTAR":0.0022587151,"MEAN_MOTION_DOT":0.00050103,"MEAN_MOTION_DDOT":0}]
